NORAD_CAT_ID,OBJECT_NAME,OBJECT_TYPE,EPOCH,MEAN_MOTION,ECCENTRICITY,INCLINATION,RA_OF_ASC_NODE,ARG_OF_PERICENTER,MEAN_ANOMALY,BSTAR,MEAN_MOTION_DOT,MEAN_MOTION_DDOT,TLE_LINE0,TLE_LINE1,TLE_LINE2,SEMIMAJOR_AXIS,PERIOD,APOGEE,PERIGEE,DECAYED
55755.0,STARLINK-5619,PAYLOAD,2024-05-22 04:03:09,14.98338854,0.0002781,69.9997,99.6146,267.8156,92.2684,0.00016114,1.831e-05,0.0,0 STARLINK-5619,1 55755U 23028Q   24143.16886215  .00001831  00000-0  16114-3 0  9992,2 55755  69.9997  99.6146 0002781 267.8156  92.2684 14.98338854 67700,6950.166,96.106,573.963,570.098,0.0
55755.0,STARLINK-5619,PAYLOAD,2024-05-22 07:15:25,14.98341583,0.0002804,69.9997,99.2781,269.1012,90.9825,0.00019609,2.248e-05,0.0,0 STARLINK-5619,1 55755U 23028Q   24143.30237952  .00002248  00000-0  19609-3 0  9991,2 55755  69.9997  99.2781 0002804 269.1012  90.9825 14.98341583 67720,6950.157,96.106,573.971,570.073,0.0
55755.0,STARLINK-5619,PAYLOAD,2024-05-22 21:40:38,14.98330544,0.0002114,70.0014,97.7637,258.4748,101.6174,0.00015057,1.704e-05,0.0,0 STARLINK-5619,1 55755U 23028Q   24143.90322647  .00001704  00000-0  15057-3 0  9992,2 55755  70.0014  97.7637 0002114 258.4748 101.6174 14.98330544 67819,6950.191,96.107,573.525,570.587,0.0
55755.0,STARLINK-5619,PAYLOAD,2024-05-23 04:05:10,14.98348867,0.0001819,70.0011,97.091,263.5806,96.5146,-0.0003368,-4.111e-05,0.0,0 STARLINK-5619,1 55755U 23028Q   24144.17026402 -.00004111  00000-0 -33680-3 0  9991,2 55755  70.0011  97.0910 0001819 263.5806  96.5146 14.98348867 67858,6950.135,96.106,573.264,570.735,0.0
55755.0,STARLINK-5619,PAYLOAD,2024-05-23 07:17:27,14.98327438,0.0002481,70.0006,96.754,265.9475,94.14,7.8077e-05,8.39e-06,0.0,0 STARLINK-5619,1 55755U 23028Q   24144.30378965  .00000839  00000-0  78077-4 0  9991,2 55755  70.0006  96.7540 0002481 265.9475  94.1400 14.98327438 67871,6950.201,96.107,573.79,570.341,0.0
55755.0,STARLINK-5619,PAYLOAD,2024-05-23 21:42:39,14.9833801,0.0002443,70.0007,95.2391,255.6653,104.4235,4.0094e-05,3.86e-06,0.0,0 STARLINK-5619,1 55755U 23028Q   24144.90462190  .00000386  00000-0  40094-4 0  9996,2 55755  70.0007  95.2391 0002443 255.6653 104.4235 14.98338010 67961,6950.168,96.106,573.731,570.335,0.0
55755.0,STARLINK-5619,PAYLOAD,2024-05-24 04:07:11,14.98338336,0.0002575,70.0001,94.5652,258.0107,102.0763,5.3138e-05,5.41e-06,0.0,0 STARLINK-5619,1 55755U 23028Q   24145.17166002  .00000541  00000-0  53138-4 0  9995,2 55755  70.0001  94.5652 0002575 258.0107 102.0763 14.98338336 68001,6950.167,96.106,573.822,570.242,0.0
55755.0,STARLINK-5619,PAYLOAD,2024-05-24 05:43:19,14.98338736,0.0002451,70.0006,94.3976,252.9692,107.1199,4.215e-05,4.1e-06,0.0,0 STARLINK-5619,1 55755U 23028Q   24145.23841947  .00000410  00000-0  42150-4 0  9997,2 55755  70.0006  94.3976 0002451 252.9692 107.1199 14.98338736 68012,6950.166,96.106,573.734,570.327,0.0
55755.0,STARLINK-5619,PAYLOAD,2024-05-24 20:08:32,14.98324864,0.0002379,70.0007,92.8825,253.627,106.4628,5.0342e-05,5.08e-06,0.0,0 STARLINK-5619,1 55755U 23028Q   24145.83926752  .00000508  00000-0  50342-4 0  9991,2 55755  70.0007  92.8825 0002379 253.6270 106.4628 14.98324864 68104,6950.209,96.107,573.727,570.42,0.0
55755.0,STARLINK-5619,PAYLOAD,2024-05-24 21:44:40,14.98324285,0.0002328,70.0012,92.7136,246.9977,113.0936,8.3188e-05,9e-06,0.0,0 STARLINK-5619,1 55755U 23028Q   24145.90602740  .00000900  00000-0  83188-4 0  9997,2 55755  70.0012  92.7136 0002328 246.9977 113.0936 14.98324285 68111,6950.211,96.107,573.694,570.458,0.0
55755.0,STARLINK-5619,PAYLOAD,2024-05-25 13:46:01,14.9832551,0.0002909,70.0002,91.0299,267.9384,92.1442,-8.4687e-06,-1.94e-06,0.0,0 STARLINK-5619,1 55755U 23028Q   24146.57363030 -.00000194  00000-0 -84687-5 0  9990,2 55755  70.0002  91.0299 0002909 267.9384  92.1442 14.98325510 68214,6950.207,96.107,574.094,570.05,0.0
55755.0,STARLINK-5619,PAYLOAD,2024-05-26 04:11:13,14.98330685,0.0002977,69.9993,89.5133,266.0135,94.0684,-9.7403e-07,-1.05e-06,0.0,0 STARLINK-5619,1 55755U 23028Q   24147.17446734 -.00000105  00000-0 -97403-6 0  9993,2 55755  69.9993  89.5133 0002977 266.0135  94.0684 14.98330685 68306,6950.191,96.107,574.125,569.987,0.0
55755.0,STARLINK-5619,PAYLOAD,2024-05-26 05:47:21,14.98331608,0.0002989,69.9994,89.3453,267.1698,92.9119,7.2814e-06,-6e-08,0.0,0 STARLINK-5619,1 55755U 23028Q   24147.24122665 -.00000006  00000-0  72814-5 0  9992,2 55755  69.9994  89.3453 0002989 267.1698  92.9119 14.98331608 68316,6950.188,96.107,574.13,569.976,0.0
55755.0,STARLINK-5619,PAYLOAD,2024-05-26 21:48:42,14.98327079,0.0003238,69.9994,87.6627,268.5364,91.5424,0.00012783,1.432e-05,0.0,0 STARLINK-5619,1 55755U 23028Q   24147.90882676  .00001432  00000-0  12783-3 0  9990,2 55755  69.9994  87.6627 0003238 268.5364  91.5424 14.98327079 68415,6950.202,96.107,574.317,569.816,0.0
55755.0,STARLINK-5619,PAYLOAD,2024-05-27 04:13:14,14.98330018,0.0003188,69.9997,86.99,268.1676,91.9118,0.00015555,1.763e-05,0.0,0 STARLINK-5619,1 55755U 23028Q   24148.17586475  .00001763  00000-0  15555-3 0  9995,2 55755  69.9997  86.9900 0003188 268.1676  91.9118 14.98330018 68455,6950.193,96.107,574.274,569.842,0.0
55755.0,STARLINK-5619,PAYLOAD,2024-05-27 13:50:03,14.98331084,0.000286,70.0003,85.9794,271.6845,88.3986,9.1315e-05,9.97e-06,0.0,0 STARLINK-5619,1 55755U 23028Q   24148.57642597  .00000997  00000-0  91315-4 0  9994,2 55755  70.0003  85.9794 0002860 271.6845  88.3986 14.98331084 68513,6950.19,96.107,574.042,570.067,0.0
55755.0,STARLINK-5619,PAYLOAD,2024-05-27 21:50:43,14.9833145,0.0002993,70.0001,85.1386,267.3604,92.7212,6.9269e-05,7.34e-06,0.0,0 STARLINK-5619,1 55755U 23028Q   24148.91022523  .00000734  00000-0  69269-4 0  9995,2 55755  70.0001  85.1386 0002993 267.3604  92.7212 14.98331450 68565,6950.188,96.107,574.134,569.973,0.0
55755.0,STARLINK-5619,PAYLOAD,2024-05-28 04:15:15,14.98334975,0.0002935,70.0001,84.4652,266.649,93.4333,0.00010729,1.188e-05,0.0,0 STARLINK-5619,1 55755U 23028Q   24149.17726165  .00001188  00000-0  10729-3 0  9997,2 55755  70.0001  84.4652 0002935 266.6490  93.4333 14.98334975 68606,6950.178,96.107,574.082,570.003,0.0
55755.0,STARLINK-5619,PAYLOAD,2024-05-28 05:51:23,14.98335351,0.0002941,70.0001,84.2969,266.9773,93.105,0.00010906,1.209e-05,0.0,0 STARLINK-5619,1 55755U 23028Q   24149.24402119  .00001209  00000-0  10906-3 0  9996,2 55755  70.0001  84.2969 0002941 266.9773  93.1050 14.98335351 68612,6950.176,96.107,574.085,569.997,0.0
55755.0,STARLINK-5619,PAYLOAD,2024-05-28 21:52:44,14.98331339,0.0002745,70.0007,82.6139,269.4668,90.6176,1.5651e-05,9.4e-07,0.0,0 STARLINK-5619,1 55755U 23028Q   24149.91162484  .00000094  00000-0  15651-4 0  9992,2 55755  70.0007  82.6139 0002745 269.4668  90.6176 14.98331339 68716,6950.189,96.107,573.962,570.146,0.0
55755.0,STARLINK-5619,PAYLOAD,2024-05-29 04:17:16,14.98331528,0.0002742,70.0007,81.9406,269.1051,90.9794,1.4266e-05,7.7e-07,0.0,0 STARLINK-5619,1 55755U 23028Q   24150.17866434  .00000077  00000-0  14266-4 0  9990,2 55755  70.0007  81.9406 0002742 269.1051  90.9794 14.98331528 68758,6950.188,96.107,573.959,570.147,0.0
55755.0,STARLINK-5619,PAYLOAD,2024-05-29 05:53:24,14.98331729,0.0002744,70.0007,81.7723,269.2954,90.789,1.5273e-05,8.9e-07,0.0,0 STARLINK-5619,1 55755U 23028Q   24150.24542408  .00000089  00000-0  15273-4 0  9992,2 55755  70.0007  81.7723 0002744 269.2954  90.7890 14.98331729 68762,6950.188,96.107,573.96,570.145,0.0
55755.0,STARLINK-5619,PAYLOAD,2024-05-29 21:54:44,14.98334399,0.0002754,70.0006,80.0897,260.9031,99.1816,1.8085e-05,1.23e-06,0.0,0 STARLINK-5619,1 55755U 23028Q   24150.91302082  .00000123  00000-0  18085-4 0  9991,2 55755  70.0006  80.0897 0002754 260.9031  99.1816 14.98334399 68868,6950.179,96.107,573.958,570.13,0.0
55755.0,STARLINK-5619,PAYLOAD,2024-05-30 04:19:17,14.98334898,0.0002738,70.0005,79.4162,259.7353,100.3497,2.4409e-05,1.98e-06,0.0,0 STARLINK-5619,1 55755U 23028Q   24151.18005950  .00000198  00000-0  24409-4 0  9994,2 55755  70.0005  79.4162 0002738 259.7353 100.3497 14.98334898 68908,6950.178,96.107,573.946,570.14,0.0
55755.0,STARLINK-5619,PAYLOAD,2024-05-30 21:56:45,14.98330426,0.0002726,70.0006,77.5644,260.0166,100.0686,3.9956e-05,3.84e-06,0.0,0 STARLINK-5619,1 55755U 23028Q   24151.91442114  .00000384  00000-0  39956-4 0  9992,2 55755  70.0006  77.5644 0002726 260.0166 100.0686 14.98330426 69010,6950.192,96.107,573.951,570.162,0.0
55755.0,STARLINK-5619,PAYLOAD,2024-05-31 04:21:18,14.98330927,0.0002715,70.0006,76.891,258.6794,101.406,4.3664e-05,4.28e-06,0.0,0 STARLINK-5619,1 55755U 23028Q   24152.18146056  .00000428  00000-0  43664-4 0  9998,2 55755  70.0006  76.8910 0002715 258.6794 101.4060 14.98330927 69057,6950.19,96.107,573.942,570.168,0.0
55755.0,STARLINK-5619,PAYLOAD,2024-05-31 21:58:46,14.98330187,0.0002934,70.0003,75.0397,267.1926,92.8898,2.1004e-05,1.58e-06,0.0,0 STARLINK-5619,1 55755U 23028Q   24152.91582112  .00000158  00000-0  21004-4 0  9990,2 55755  70.0003  75.0397 0002934 267.1926  92.8898 14.98330187 69161,6950.192,96.107,574.096,570.018,0.0
55755.0,STARLINK-5619,PAYLOAD,2024-06-01 04:23:18,14.9833573,0.0002975,69.9998,74.3645,266.1055,93.9764,5.267e-05,5.36e-06,0.0,0 STARLINK-5619,1 55755U 23028Q   24153.18285604  .00000536  00000-0  52670-4 0  9999,2 55755  69.9998  74.3645 0002975 266.1055  93.9764 14.98335730 69204,6950.175,96.107,574.108,569.972,0.0
55755.0,STARLINK-5619,PAYLOAD,2024-06-01 12:23:59,14.98328183,0.0002892,70.0,73.5211,266.579,93.5039,3.7892e-05,3.59e-06,0.0,0 STARLINK-5619,1 55755U 23028Q   24153.51666107  .00000359  00000-0  37892-4 0  9999,2 55755  70.0000  73.5211 0002892 266.5790  93.5039 14.98328183 69259,6950.199,96.107,574.074,570.054,0.0
55755.0,STARLINK-5619,PAYLOAD,2024-06-02 12:26:00,14.98328403,0.0002912,70.0005,70.9983,268.1755,91.9071,1.7411e-05,1.15e-06,0.0,0 STARLINK-5619,1 55755U 23028Q   24154.51806261  .00000115  00000-0  17411-4 0  9992,2 55755  70.0005  70.9983 0002912 268.1755  91.9071 14.98328403 69403,6950.198,96.107,574.087,570.039,0.0
